     3.04           N: GNSS NAV DATA    G: GPS              RINEX VERSION / TYPE
sbf2rin-13.8.0                          20220215 104928 UTC PGM / RUN BY / DATE 
GPSA   1.5832E-08 -7.4506E-09 -5.9605E-08  5.9605E-08       IONOSPHERIC CORR    
GPSB   1.2288E+05 -6.5536E+04 -1.3107E+05 -6.5536E+04       IONOSPHERIC CORR    
GPUT -2.7939677238E-09-4.440892099E-15 233472 2197          TIME SYSTEM CORR    
    18                                                      LEAP SECONDS        
                                                            END OF HEADER       
G02 2022 02 14 16 00 00-6.508463993669E-04-6.821210263297E-13 0.000000000000E+00
     6.800000000000E+01 6.128125000000E+01 4.476615040414E-09-3.067179891828E+00
     3.220513463020E-06 2.068026608322E-02 2.309679985046E-07 5.153692728043E+03
     1.440000000000E+05 2.253800630569E-07-1.999760855095E+00 5.587935447693E-08
     9.650070352736E-01 3.782812500000E+02-1.442742655657E+00-8.030334495665E-09
     1.946509651369E-10 1.000000000000E+00 2.197000000000E+03 0.000000000000E+00
     2.000000000000E+00 0.000000000000E+00-1.769512891769E-08 6.800000000000E+01
     1.384980000000E+05 4.000000000000E+00
G06 2022 02 14 16 00 00 2.014092169702E-04 1.193711796077E-11 0.000000000000E+00
     2.500000000000E+01 3.325000000000E+01 4.124100356762E-09-2.883179497873E+00
     1.771375536919E-06 2.695597475395E-03 8.661299943924E-07 5.153668870926E+03
     1.440000000000E+05 1.862645149231E-08-1.918755160426E+00-1.862645149231E-08
     9.860312571197E-01 3.775625000000E+02-9.596671253478E-01-8.163554330520E-09
     1.325055193867E-10 1.000000000000E+00 2.197000000000E+03 0.000000000000E+00
     2.000000000000E+00 0.000000000000E+00 3.725290298462E-09 2.500000000000E+01
     1.384980000000E+05 4.000000000000E+00
G11 2022 02 14 16 00 00-8.912524208426E-05 1.239186531166E-11 0.000000000000E+00
     3.900000000000E+01 2.521875000000E+01 4.639478967207E-09-1.096475900371E+00
     1.408159732819E-06 2.675704890862E-04 4.637986421585E-07 5.153770029068E+03
     1.440000000000E+05-8.381903171539E-08-1.866674227891E+00-6.146728992462E-08
     9.617525633461E-01 3.734062500000E+02 2.873259364066E+00-8.429279684762E-09
     1.121475285376E-10 1.000000000000E+00 2.197000000000E+03 0.000000000000E+00
     3.200000000000E+01 6.300000000000E+01-8.847564458847E-09 3.900000000000E+01
     1.384980000000E+05 4.000000000000E+00
G12 2022 02 14 16 00 00-1.709517091513E-04-5.684341886081E-12 0.000000000000E+00
     3.800000000000E+01-2.781250000000E+00 4.263391873099E-09 1.747830329726E+00
    -4.339963197708E-07 8.686765213497E-03 9.646639227867E-06 5.153601318359E+03
     1.440000000000E+05-1.098960638046E-07 2.337936109543E+00-2.253800630569E-07
     9.702611699237E-01 1.975312500000E+02 1.246839591554E+00-7.735322207219E-09
    -6.889572692642E-10 1.000000000000E+00 2.197000000000E+03 0.000000000000E+00
     2.000000000000E+00 0.000000000000E+00-1.257285475731E-08 3.800000000000E+01
     1.384980000000E+05 4.000000000000E+00
G20 2022 02 14 16 00 00 5.167084746063E-04-1.136868377216E-13 0.000000000000E+00
     7.100000000000E+01-1.357812500000E+02 4.872345809903E-09-2.195939543205E+00
    -6.953254342079E-06 5.158897023648E-03 4.276633262634E-06 5.153753486633E+03
     1.440000000000E+05-4.842877388000E-08-1.029343549388E+00-8.195638656616E-08
     9.416728994275E-01 2.862500000000E+02 3.132220072464E+00-8.408564536178E-09
    -1.467918287546E-10 1.000000000000E+00 2.197000000000E+03 0.000000000000E+00
     2.000000000000E+00 0.000000000000E+00-8.381903171539E-09 7.100000000000E+01
     1.387920000000E+05 4.000000000000E+00
G22 2022 02 14 16 00 00 2.135150134563E-04 5.684341886081E-12 0.000000000000E+00
     3.000000000000E+01-1.384375000000E+01 4.435899058715E-09-1.163166245286E+00
    -4.600733518600E-07 1.288613153156E-02 1.035630702972E-05 5.153659524918E+03
     1.440000000000E+05 1.862645149231E-09 2.543210212856E-01 2.998858690262E-07
     9.616805380374E-01 1.818750000000E+02-1.872763832131E+00-7.872827934884E-09
     4.960920927984E-10 1.000000000000E+00 2.197000000000E+03 0.000000000000E+00
     2.000000000000E+00 0.000000000000E+00-9.778887033463E-09 3.000000000000E+01
     1.384980000000E+05 4.000000000000E+00
G24 2022 02 14 16 00 00 2.745375968516E-04-1.932676241267E-12 0.000000000000E+00
     6.000000000000E+01 2.171875000000E+01 5.547731085268E-09-2.915901318011E+00
     9.760260581970E-07 1.233385642990E-02 5.302950739861E-06 5.153687238693E+03
     1.440000000000E+05 3.539025783539E-08 1.142105997619E+00-2.663582563400E-07
     9.341584758844E-01 2.615625000000E+02 8.071512929540E-01-8.284630802412E-09
     2.978695503195E-10 1.000000000000E+00 2.197000000000E+03 0.000000000000E+00
     2.000000000000E+00 0.000000000000E+00 2.328306436539E-09 6.000000000000E+01
     1.384980000000E+05 4.000000000000E+00
G25 2022 02 14 16 00 00 2.854587510228E-04 5.343281372916E-12 0.000000000000E+00
     3.600000000000E+01-1.284375000000E+01 4.679480633437E-09 1.493793692400E+00
    -7.357448339462E-07 1.050308230333E-02 9.089708328247E-06 5.153710334778E+03
     1.440000000000E+05-2.607703208923E-07 2.261223249962E+00-2.607703208923E-08
     9.576317323141E-01 2.053750000000E+02 9.811922386409E-01-8.051763959717E-09
    -7.053865250373E-10 1.000000000000E+00 2.197000000000E+03 0.000000000000E+00
     2.000000000000E+00 0.000000000000E+00 5.587935447693E-09 3.600000000000E+01
     1.384980000000E+05 4.000000000000E+00
G29 2022 02 14 16 00 00-4.801424220204E-04-4.774847184308E-12 0.000000000000E+00
     1.900000000000E+01 1.245312500000E+02 3.700511284006E-09-8.673097452179E-01
     6.383284926414E-06 1.831951667555E-03 9.309500455856E-06 5.153758316040E+03
     1.440000000000E+05-5.960464477539E-08-2.895275353668E+00 9.313225746155E-09
     9.822046730414E-01 2.107812500000E+02 2.257929792730E+00-7.657461821164E-09
     7.000291590243E-11 1.000000000000E+00 2.197000000000E+03 0.000000000000E+00
     2.000000000000E+00 0.000000000000E+00-1.024454832077E-08 1.900000000000E+01
     1.384980000000E+05 4.000000000000E+00
G31 2022 02 14 16 00 00-1.646992750466E-04-1.818989403546E-12 0.000000000000E+00
     5.100000000000E+01 1.462500000000E+01 5.205573975908E-09 1.948687400595E+00
     8.568167686462E-07 1.045231905300E-02 5.489215254784E-06 5.153679178238E+03
     1.440000000000E+05-2.272427082062E-07 1.242970465818E+00 1.825392246246E-07
     9.548417646721E-01 2.749062500000E+02 3.750216477626E-01-8.271058808513E-09
     1.314340461842E-10 1.000000000000E+00 2.197000000000E+03 0.000000000000E+00
     2.000000000000E+00 0.000000000000E+00-1.350417733192E-08 5.100000000000E+01
     1.384980000000E+05 4.000000000000E+00
G32 2022 02 14 16 00 00-6.762566044927E-05-6.707523425575E-12 0.000000000000E+00
     3.100000000000E+01-2.809375000000E+01 4.477329355882E-09-3.446895043071E-01
    -1.387670636177E-06 5.562457023188E-03 1.062452793121E-05 5.153778247833E+03
     1.440000000000E+05 3.725290298462E-09 1.642950702920E-01 2.607703208923E-08
     9.584132055970E-01 1.756250000000E+02-2.355134036969E+00-7.904614973228E-09
     4.632335812523E-10 1.000000000000E+00 2.197000000000E+03 0.000000000000E+00
     2.000000000000E+00 0.000000000000E+00 4.656612873077E-10 3.100000000000E+01
     1.384980000000E+05 4.000000000000E+00
G26 2022 02 14 16 00 00 1.831883564591E-04 3.183231456205E-12 0.000000000000E+00
     2.100000000000E+01-1.865625000000E+01 5.204145344971E-09 8.409249599685E-01
    -6.873160600662E-07 6.875209393911E-03 7.875263690948E-06 5.153696290970E+03
     1.440000000000E+05-2.421438694000E-08 2.214243151429E+00 1.136213541031E-07
     9.384410573797E-01 2.126875000000E+02 3.698661679191E-01-8.294631218970E-09
    -6.953861084798E-10 1.000000000000E+00 2.197000000000E+03 0.000000000000E+00
     2.000000000000E+00 0.000000000000E+00 6.984919309616E-09 2.100000000000E+01
     1.395660000000E+05 4.000000000000E+00
